OBJECT_NAME,OBJECT_ID,EPOCH,MEAN_MOTION,ECCENTRICITY,INCLINATION,RA_OF_ASC_NODE,ARG_OF_PERICENTER,MEAN_ANOMALY,EPHEMERIS_TYPE,CLASSIFICATION_TYPE,NORAD_CAT_ID,ELEMENT_SET_NO,REV_AT_EPOCH,BSTAR,MEAN_MOTION_DOT,MEAN_MOTION_DDOT
STARLINK-37775,2026-122V,2026-06-15T14:00:01.999872,15.80882926,.00016178,97.2844,195.9915,120.5945,32.9752,0,U,69348,999,309,-.36925504E-3,-.70522E-3,0
STARLINK-37777,2026-122W,2026-06-15T14:00:01.999872,15.80875897,.0001447,97.2839,195.9918,103.5685,50.7875,0,U,69349,999,309,-.41102432E-3,-.78385E-3,0
STARLINK-37779,2026-122X,2026-06-15T14:00:01.999872,15.80984799,.00008727,97.2837,195.9955,105.2764,55.9787,0,U,69350,999,309,-.9706667E-3,-.183619E-2,0
STARLINK-37549,2026-122Y,2026-06-15T14:00:01.999872,15.80922169,.00016544,97.2839,195.9879,101.0013,44.6019,0,U,69351,999,309,-.62562022E-3,-.118943E-2,0
STARLINK-37778,2026-122Z,2026-06-15T14:00:01.999872,15.80838783,.00015238,97.2837,195.9995,95.7728,72.8466,0,U,69352,999,309,-.64961116E-4,-.1258E-3,0
STARLINK-37651,2026-123A,2026-06-15T14:00:01.999872,15.80826141,.00011677,53.1585,249.8468,86.8429,226.1911,0,U,69353,999,289,.43473855E-3,.85774E-3,0
STARLINK-37652,2026-123B,2026-06-15T14:00:01.999872,15.80869708,.00010464,53.1584,249.8606,92.1556,214.3600,0,U,69354,999,289,.15528601E-3,.30051E-3,0
STARLINK-37593,2026-123C,2026-06-15T14:00:01.999872,15.80867321,.00011071,53.1583,249.8497,102.7703,208.6998,0,U,69355,999,294,.2132759E-3,.41586E-3,0
STARLINK-37597,2026-123D,2026-06-15T14:00:01.999872,15.80836839,.00011503,53.1585,249.8304,70.1694,250.5995,0,U,69356,999,294,.38934451E-3,.76701E-3,0
STARLINK-37598,2026-123E,2026-06-15T14:00:01.999872,15.80878913,.00009751,53.1588,249.8055,75.1684,257.5193,0,U,69357,999,294,.86765585E-4,.16463E-3,0
STARLINK-37602,2026-123F,2026-06-15T14:00:01.999872,15.77082489,.00009181,53.1593,249.8091,64.9995,266.2713,0,U,69358,999,294,-.13398651E-1,-.1934779E-1,0
STARLINK-37600,2026-123G,2026-06-15T14:00:01.999872,15.78507916,.00009138,53.1592,249.7665,59.5044,292.4907,0,U,69359,999,294,-.1235708E-1,-.1907655E-1,0
STARLINK-37599,2026-123H,2026-06-15T14:00:01.999872,15.80880947,.00011602,53.1587,249.6840,69.1542,322.5962,0,U,69360,999,289,.77360162E-4,.14601E-3,0
STARLINK-37039,2026-123J,2026-06-15T14:00:01.999872,15.80886900,.00012485,53.1593,249.7408,64.8391,298.8614,0,U,69361,999,289,.11154604E-4,.1504E-4,0
STARLINK-37040,2026-123K,2026-06-15T14:00:01.999872,15.81743226,.00007027,53.1581,249.5147,72.1083,40.9934,0,U,69362,999,289,-.63580787E-2,-.116624E-1,0
STARLINK-37582,2026-123L,2026-06-15T14:00:01.999872,15.81359550,.00014777,53.1590,249.6848,14.5872,16.3361,0,U,69363,999,289,-.89674457E-2,-.158549E-1,0
STARLINK-37309,2026-123M,2026-06-15T14:00:01.999872,15.85160716,.00012013,53.1566,249.4079,65.1964,99.5454,0,U,69364,999,303,-.10423331E-1,-.2159205E-1,0
STARLINK-37436,2026-123N,2026-06-15T14:00:01.999872,15.85288322,.00012951,53.1568,249.3718,65.9648,116.0782,0,U,69365,999,303,-.10550996E-1,-.2193265E-1,0
STARLINK-37581,2026-123P,2026-06-15T14:00:01.999872,15.83190369,.00017257,53.1577,249.4054,66.5101,99.2656,0,U,69366,999,288,-.1100864E-1,-.2086131E-1,0
STARLINK-37683,2026-123Q,2026-06-15T14:00:01.999872,15.84569666,.00013046,53.1571,249.3637,65.6051,120.1869,0,U,69367,999,289,-.10910623E-1,-.2190302E-1,0
STARLINK-37687,2026-123R,2026-06-15T14:00:01.999872,15.84966537,.00012584,53.1567,249.3175,67.9555,140.1989,0,U,69368,999,289,-.1016339E-1,-.2096355E-1,0
STARLINK-37631,2026-123S,2026-06-15T14:00:01.999872,15.83895916,.00012548,53.1569,249.3210,60.7787,145.8528,0,U,69369,999,294,-.10795995E-1,-.2111399E-1,0
STARLINK-37673,2026-123T,2026-06-15T14:00:01.999872,15.83332245,.00013708,53.1572,249.3132,83.6082,126.6158,0,U,69370,999,294,-.10724851E-1,-.205152E-1,0
STARLINK-37645,2026-123U,2026-06-15T14:00:01.999872,15.82260084,.00012354,53.1579,249.3321,50.5825,150.4173,0,U,69371,999,294,-.93862716E-2,-.171111E-1,0
STARLINK-37688,2026-123V,2026-06-15T14:00:01.999872,15.81074514,.00014434,53.1581,249.2995,65.1792,151.2795,0,U,69372,999,294,-.16741235E-2,-.322122E-2,0
STARLINK-37685,2026-123W,2026-06-15T14:00:01.999872,15.80949928,.00009411,53.1579,249.2933,66.9500,152.4598,0,U,69373,999,294,-.74810478E-3,-.146392E-2,0
STARLINK-37632,2026-123X,2026-06-15T14:00:01.999872,15.81099566,.00011536,53.1577,249.2849,69.7679,153.7805,0,U,69374,999,289,-.19202823E-2,-.367866E-2,0
STARLINK-37454,2026-123Y,2026-06-15T14:00:01.999872,15.80986524,.00012834,53.1576,249.2714,52.3050,177.5513,0,U,69375,999,303,-.10998253E-2,-.213617E-2,0
STARLINK-37485,2026-123Z,2026-06-15T14:00:01.999872,15.80969046,.00012124,53.1577,249.2626,51.2018,182.8663,0,U,69376,999,303,-.95142019E-3,-.185333E-2,0
STARLINK-37439,2026-123AA,2026-06-15T14:00:01.999872,15.83095369,.00012771,53.1560,249.1821,86.5424,186.2345,0,U,69377,999,289,-.11212828E-1,-.211031E-1,0
