STARLINK-37775          
1 69348U 26122V   26166.58335648 -.00070522  00000+0 -36926-3 0  9992
2 69348  97.2844 195.9915 0001617 120.5945  32.9752 15.80882926  3095
STARLINK-37777          
1 69349U 26122W   26166.58335648 -.00078385  00000+0 -41102-3 0  9990
2 69349  97.2839 195.9918 0001447 103.5685  50.7875 15.80875897  3099
STARLINK-37779          
1 69350U 26122X   26166.58335648 -.00183619  00000+0 -97067-3 0  9990
2 69350  97.2837 195.9955 0000872 105.2764  55.9787 15.80984799  3099
STARLINK-37549          
1 69351U 26122Y   26166.58335648 -.00118943  00000+0 -62562-3 0  9991
2 69351  97.2839 195.9879 0001654 101.0013  44.6019 15.80922169  3093
STARLINK-37778          
1 69352U 26122Z   26166.58335648 -.00012580  00000+0 -64961-4 0  9998
2 69352  97.2837 195.9995 0001523  95.7728  72.8466 15.80838783  3095
STARLINK-37651          
1 69353U 26123A   26166.58335648  .00085774  00000+0  43474-3 0  9998
2 69353  53.1585 249.8468 0001167  86.8429 226.1911 15.80826141  2895
STARLINK-37652          
1 69354U 26123B   26166.58335648  .00030051  00000+0  15529-3 0  9997
2 69354  53.1584 249.8606 0001046  92.1556 214.3600 15.80869708  2896
STARLINK-37593          
1 69355U 26123C   26166.58335648  .00041586  00000+0  21328-3 0  9997
2 69355  53.1583 249.8497 0001107 102.7703 208.6998 15.80867321  2945
STARLINK-37597          
1 69356U 26123D   26166.58335648  .00076701  00000+0  38934-3 0  9996
2 69356  53.1585 249.8304 0001150  70.1694 250.5995 15.80836839  2943
STARLINK-37598          
1 69357U 26123E   26166.58335648  .00016463  00000+0  86766-4 0  9993
2 69357  53.1588 249.8055 0000975  75.1684 257.5193 15.80878913  2944
STARLINK-37602          
1 69358U 26123F   26166.58335648 -.01934779  00000+0 -13399-1 0  9995
2 69358  53.1593 249.8091 0000918  64.9995 266.2713 15.77082489  2945
STARLINK-37600          
1 69359U 26123G   26166.58335648 -.01907655  00000+0 -12357-1 0  9992
2 69359  53.1592 249.7665 0000913  59.5044 292.4907 15.78507916  2945
STARLINK-37599          
1 69360U 26123H   26166.58335648  .00014601  00000+0  77360-4 0  9999
2 69360  53.1587 249.6840 0001160  69.1542 322.5962 15.80880947  2891
STARLINK-37039          
1 69361U 26123J   26166.58335648  .00001504  00000+0  11155-4 0  9998
2 69361  53.1593 249.7408 0001248  64.8391 298.8614 15.80886900  2895
STARLINK-37040          
1 69362U 26123K   26166.58335648 -.01166240  00000+0 -63581-2 0  9999
2 69362  53.1581 249.5147 0000702  72.1083  40.9934 15.81743226  2890
STARLINK-37582          
1 69363U 26123L   26166.58335648 -.01585490  00000+0 -89674-2 0  9993
2 69363  53.1590 249.6848 0001477  14.5872  16.3361 15.81359550  2890
STARLINK-37309          
1 69364U 26123M   26166.58335648 -.02159205  00000+0 -10423-1 0  9991
2 69364  53.1566 249.4079 0001201  65.1964  99.5454 15.85160716  3038
STARLINK-37436          
1 69365U 26123N   26166.58335648 -.02193265  00000+0 -10551-1 0  9998
2 69365  53.1568 249.3718 0001295  65.9648 116.0782 15.85288322  3033
STARLINK-37581          
1 69366U 26123P   26166.58335648 -.02086131  00000+0 -11009-1 0  9991
2 69366  53.1577 249.4054 0001725  66.5101  99.2656 15.83190369  2882
STARLINK-37683          
1 69367U 26123Q   26166.58335648 -.02190302  00000+0 -10911-1 0  9999
2 69367  53.1571 249.3637 0001304  65.6051 120.1869 15.84569666  2892
STARLINK-37687          
1 69368U 26123R   26166.58335648 -.02096355  00000+0 -10163-1 0  9992
2 69368  53.1567 249.3175 0001258  67.9555 140.1989 15.84966537  2890
STARLINK-37631          
1 69369U 26123S   26166.58335648 -.02111399  00000+0 -10796-1 0  9991
2 69369  53.1569 249.3210 0001254  60.7787 145.8528 15.83895916  2945
STARLINK-37673          
1 69370U 26123T   26166.58335648 -.02051520  00000+0 -10725-1 0  9994
2 69370  53.1572 249.3132 0001370  83.6082 126.6158 15.83332245  2942
STARLINK-37645          
1 69371U 26123U   26166.58335648 -.01711110  00000+0 -93863-2 0  9997
2 69371  53.1579 249.3321 0001235  50.5825 150.4173 15.82260084  2940
STARLINK-37688          
1 69372U 26123V   26166.58335648 -.00322122  00000+0 -16741-2 0  9998
2 69372  53.1581 249.2995 0001443  65.1792 151.2795 15.81074514  2945
STARLINK-37685          
1 69373U 26123W   26166.58335648 -.00146392  00000+0 -74810-3 0  9994
2 69373  53.1579 249.2933 0000941  66.9500 152.4598 15.80949928  2946
STARLINK-37632          
1 69374U 26123X   26166.58335648 -.00367866  00000+0 -19203-2 0  9990
2 69374  53.1577 249.2849 0001153  69.7679 153.7805 15.81099566  2899
STARLINK-37454          
1 69375U 26123Y   26166.58335648 -.00213617  00000+0 -10998-2 0  9997
2 69375  53.1576 249.2714 0001283  52.3050 177.5513 15.80986524  3030
STARLINK-37485          
1 69376U 26123Z   26166.58335648 -.00185333  00000+0 -95142-3 0  9996
2 69376  53.1577 249.2626 0001212  51.2018 182.8663 15.80969046  3033
STARLINK-37439          
1 69377U 26123AA  26166.58335648 -.02110310  00000+0 -11213-1 0  9997
2 69377  53.1560 249.1821 0001277  86.5424 186.2345 15.83095369  2894
